*******************************************************************************
Ephemeris / WWW_USER Mon Mar 26 21:53:25 2018 Pasadena, USA      / Horizons    
*******************************************************************************
Target body name: Jupiter (599)                   {source: jup341}
Center body name: Solar System Barycenter (0)     {source: DE431mx}
Center-site name: BODY CENTER
*******************************************************************************
Start time      : A.D. 2000-Jan-01 00:00:00.0000 TDB
Stop  time      : A.D. 2005-Jan-01 00:00:00.0000 TDB
Step-size       : 7200 minutes
*******************************************************************************
Center geodetic : 0.00000000,0.00000000,0.0000000 {E-lon(deg),Lat(deg),Alt(km)}
Center cylindric: 0.00000000,0.00000000,0.0000000 {E-lon(deg),Dxy(km),Dz(km)}
Center radii    : (undefined)                                                  
Output units    : AU-D                                                         
Output type     : GEOMETRIC cartesian states
Output format   : 2 (position and velocity)
Reference frame : ICRF/J2000.0                                                 
Coordinate systm: Ecliptic and Mean Equinox of Reference Epoch                 
*******************************************************************************
JDTDB
   X     Y     Z
   VX    VY    VZ
*******************************************************************************
$$SOE
2451964.500000000 = A.D. 2001-Feb-24 00:00:00.0000 TDB 
   1.400670799669314E+00  4.858370206143641E+00 -5.149909831109484E-02
  -7.343079168367949E-03  2.449978891976302E-03  1.542152322541820E-04
2451969.500000000 = A.D. 2001-Mar-01 00:00:00.0000 TDB 
   1.363910459197888E+00  4.870483420596299E+00 -5.072655619033328E-02
  -7.360034430360220E-03  2.393611658914171E-03  1.547523227789176E-04
2451974.500000000 = A.D. 2001-Mar-06 00:00:00.0000 TDB 
   1.327073038007209E+00  4.882317249414616E+00 -4.995117619091519E-02
  -7.376055844733777E-03  2.338991390694062E-03  1.553504255480352E-04
2451979.500000000 = A.D. 2001-Mar-11 00:00:00.0000 TDB 
   1.290160481006953E+00  4.893871135044815E+00 -4.917300937758093E-02
  -7.389821034047289E-03  2.283669070941634E-03  1.559419679491383E-04
2451984.500000000 = A.D. 2001-Mar-16 00:00:00.0000 TDB 
   1.253173860187599E+00  4.905149403232056E+00 -4.839195377550828E-02
  -7.404272773970759E-03  2.227940198209159E-03  1.564937295616340E-04
2451989.500000000 = A.D. 2001-Mar-21 00:00:00.0000 TDB 
   1.216115191293476E+00  4.916148947455259E+00 -4.760815681707289E-02
  -7.419044161791103E-03  2.171787385049200E-03  1.570221887977440E-04
2451994.500000000 = A.D. 2001-Mar-26 00:00:00.0000 TDB 
   1.178988380234897E+00  4.926866069268410E+00 -4.682175295784865E-02
  -7.431274848144396E-03  2.115781943271467E-03  1.575714760687574E-04
2451999.500000000 = A.D. 2001-Mar-31 00:00:00.0000 TDB 
   1.141794582223733E+00  4.937306222608808E+00 -4.603260634217386E-02
  -7.445153771008665E-03  2.059629012181868E-03  1.580757231696891E-04
2452004.500000000 = A.D. 2001-Apr-05 00:00:00.0000 TDB 
   1.104534918908644E+00  4.947467935630105E+00 -4.524081467033254E-02
  -7.459291157263315E-03  2.003416357381036E-03  1.585712161946765E-04
2452009.500000000 = A.D. 2001-Apr-10 00:00:00.0000 TDB 
   1.067213841630350E+00  4.957346182055471E+00 -4.444656077775114E-02
  -7.470619398123076E-03  1.948643101592798E-03  1.591361161617290E-04
2452014.500000000 = A.D. 2001-Apr-15 00:00:00.0000 TDB 
   1.029832197420409E+00  4.966944441443029E+00 -4.364977929173273E-02
  -7.481613283497576E-03  1.892260332961552E-03  1.596358770767840E-04
2452019.500000000 = A.D. 2001-Apr-20 00:00:00.0000 TDB 
   9.923912883340941E-01  4.976264580450405E+00 -4.285045175723325E-02
  -7.493507272691784E-03  1.835299357747094E-03  1.600910322102855E-04
2452024.500000000 = A.D. 2001-Apr-25 00:00:00.0000 TDB 
   9.548946127400227E-01  4.985302173056469E+00 -4.204875865598875E-02
  -7.505092322574023E-03  1.779212755985319E-03  1.605685865958680E-04
2452029.500000000 = A.D. 2001-Apr-30 00:00:00.0000 TDB 
   9.173445848716998E-01  4.994056704499129E+00 -4.124474749369083E-02
  -7.514852232617642E-03  1.722769035620678E-03  1.610419073945620E-04
2452034.500000000 = A.D. 2001-May-05 00:00:00.0000 TDB 
   8.797425745537697E-01  5.002532937668178E+00 -4.043830698026778E-02
  -7.525849333997170E-03  1.666806978539111E-03  1.614980013287677E-04
2452039.500000000 = A.D. 2001-May-10 00:00:00.0000 TDB 
   8.420902414214144E-01  5.010727261193360E+00 -3.962961119767460E-02
  -7.536240348436156E-03  1.610704933908877E-03  1.619538305392984E-04
2452044.500000000 = A.D. 2001-May-15 00:00:00.0000 TDB 
   8.043914456882681E-01  5.018636389421151E+00 -3.881878918739314E-02
  -7.543521836627425E-03  1.554736416950924E-03  1.624346243221789E-04
2452049.500000000 = A.D. 2001-May-20 00:00:00.0000 TDB 
   7.666470384143697E-01  5.026266204933322E+00 -3.800570049152054E-02
  -7.552566694630989E-03  1.497607379338325E-03  1.628350234218216E-04
2452054.500000000 = A.D. 2001-May-25 00:00:00.0000 TDB 
   7.288585799130718E-01  5.033615303278391E+00 -3.719044043632993E-02
  -7.562200415238012E-03  1.440385120193243E-03  1.632167127957129E-04
2452059.500000000 = A.D. 2001-May-30 00:00:00.0000 TDB 
   6.910303295509749E-01  5.040679163945070E+00 -3.637318486854277E-02
  -7.569972935289245E-03  1.384879943772133E-03  1.636634669843554E-04
2452064.500000000 = A.D. 2001-Jun-04 00:00:00.0000 TDB 
   6.531633011466249E-01  5.047460965704943E+00 -3.555387973617821E-02
  -7.577097378687619E-03  1.328370270911933E-03  1.640700790528306E-04
2452069.500000000 = A.D. 2001-Jun-09 00:00:00.0000 TDB 
   6.152590645134545E-01  5.053962827639811E+00 -3.473250389559323E-02
  -7.584648472432929E-03  1.272024833653870E-03  1.644621257427927E-04
2452074.500000000 = A.D. 2001-Jun-14 00:00:00.0000 TDB 
   5.773202826352192E-01  5.060180335900395E+00 -3.390925363989313E-02
  -7.591243926370657E-03  1.215709960631305E-03  1.648577170777064E-04
2452079.500000000 = A.D. 2001-Jun-19 00:00:00.0000 TDB 
   5.393496501738102E-01  5.066113331993938E+00 -3.308416562064826E-02
  -7.596006800116371E-03  1.158568590967812E-03  1.652287749016547E-04
2452084.500000000 = A.D. 2001-Jun-24 00:00:00.0000 TDB 
   5.013486466813163E-01  5.071767235208909E+00 -3.225711239118410E-02
  -7.603113899606606E-03  1.101697954359847E-03  1.655599691351859E-04
2452089.500000000 = A.D. 2001-Jun-29 00:00:00.0000 TDB 
   4.633190289800178E-01  5.077138044774210E+00 -3.142828355691266E-02
  -7.609687378397094E-03  1.045217010364678E-03  1.659064701978814E-04
2452094.500000000 = A.D. 2001-Jul-04 00:00:00.0000 TDB 
   4.252647112157406E-01  5.082222839104934E+00 -3.059780282589054E-02
  -7.613177679732940E-03  9.897379287482587E-04  1.663055976077117E-04
2452099.500000000 = A.D. 2001-Jul-09 00:00:00.0000 TDB 
   3.871862458095543E-01  5.087027409675101E+00 -2.976554119062878E-02
  -7.617695917295529E-03  9.329416664774188E-04  1.666310876549566E-04
2452104.500000000 = A.D. 2001-Jul-14 00:00:00.0000 TDB 
   3.490853656840077E-01  5.091550487655263E+00 -2.893159399230905E-02
  -7.622197245988690E-03  8.759051622505775E-04  1.669374789726099E-04
2452109.500000000 = A.D. 2001-Jul-19 00:00:00.0000 TDB 
   3.109657350633768E-01  5.095788160659136E+00 -2.809613023660322E-02
  -7.625426224705218E-03  8.196237709466697E-04  1.672677126038407E-04
2452114.500000000 = A.D. 2001-Jul-24 00:00:00.0000 TDB 
   2.728288146515642E-01  5.099743625223506E+00 -2.725909195019784E-02
  -7.628476357748525E-03  7.623898961199902E-04  1.675506438363355E-04
2452119.500000000 = A.D. 2001-Jul-29 00:00:00.0000 TDB 
   2.346765572375432E-01  5.103419386892226E+00 -2.642044830368354E-02
  -7.632611402676220E-03  7.062989591938833E-04  1.678422579685860E-04
2452124.500000000 = A.D. 2001-Aug-03 00:00:00.0000 TDB 
   1.965110677945230E-01  5.106810637319840E+00 -2.558041979221393E-02
  -7.635129319446569E-03  6.504891748442962E-04  1.681563750771858E-04
2452129.500000000 = A.D. 2001-Aug-08 00:00:00.0000 TDB 
   1.583352072299925E-01  5.109917474859674E+00 -2.473903816935563E-02
  -7.635116102120727E-03  5.940920573480190E-04  1.684607944725577E-04
2452134.500000000 = A.D. 2001-Aug-13 00:00:00.0000 TDB 
   1.201501160139795E-01  5.112745767633345E+00 -2.389617133904032E-02
  -7.637450370576526E-03  5.371262702937185E-04  1.686977806282749E-04
2452139.500000000 = A.D. 2001-Aug-18 00:00:00.0000 TDB 
   8.195763678524677E-02  5.115291469895686E+00 -2.305201284127565E-02
  -7.639331891657692E-03  4.801436617106270E-04  1.689315630878266E-04
2452144.500000000 = A.D. 2001-Aug-23 00:00:00.0000 TDB 
   4.376170685505124E-02  5.117552344190101E+00 -2.220666930715881E-02
  -7.639232979922011E-03  4.243748128998337E-04  1.692085734497607E-04
2452149.500000000 = A.D. 2001-Aug-28 00:00:00.0000 TDB 
   5.563027043245215E-03  5.119533907292959E+00 -2.136002167174849E-02
  -7.640143442820076E-03  3.678477985725545E-04  1.694323059013202E-04
2452154.500000000 = A.D. 2001-Sep-02 00:00:00.0000 TDB 
  -3.263643347399611E-02  5.121234923451162E+00 -2.051216851096945E-02
  -7.640477835241806E-03  3.120051881519040E-04  1.696739114328216E-04
2452159.500000000 = A.D. 2001-Sep-07 00:00:00.0000 TDB 
  -7.083388356485842E-02  5.122651664720966E+00 -1.966328852265197E-02
  -7.638987456227232E-03  2.562297426678253E-04  1.699249684396076E-04
2452164.500000000 = A.D. 2001-Sep-12 00:00:00.0000 TDB 
  -1.090275723740611E-01  5.123787500030987E+00 -1.881331728764575E-02
  -7.637022838303649E-03  1.990027889218076E-04  1.701124562027221E-04
2452169.500000000 = A.D. 2001-Sep-17 00:00:00.0000 TDB 
  -1.472154750942213E-01  5.124645607634239E+00 -1.796220739423823E-02
  -7.637126986900417E-03  1.426464544574039E-04  1.702849523372095E-04
